start=new Date('2021-12-01T00:00:00.000Z').valueOf();
sats=[{"REV_AT_EPOCH":"2988","PERIAPSIS":"545.608","MEAN_ELEMENT_THEORY":"SGP4","NORAD_CAT_ID":"48572","TLE_LINE1":"1 48572U 21041V   21334.34224960 -.00000473  00000-0 -12851-4 0  9994","EPHEMERIS_TYPE":"0","ARG_OF_PERICENTER":"71.8708","EPOCH":"2021-11-30T08:12:50.365440","OBJECT_NAME":"STARLINK-2222","PERIOD":"95.592","MEAN_ANOMALY":"288.2534","INCLINATION":"53.0549","SITE":"AFETR","GP_ID":"190818640","BSTAR":"-0.00001285100000","OBJECT_ID":"2021-041V","CLASSIFICATION_TYPE":"U","MEAN_MOTION_DDOT":"0.0000000000000","TLE_LINE2":"2 48572  53.0549 306.2857 0002325  71.8708 288.2534 15.06398393 29884","APOAPSIS":"548.829","LAUNCH_DATE":"2021-05-15","RA_OF_ASC_NODE":"306.2857","SEMIMAJOR_AXIS":"6925.353","ELEMENT_SET_NO":"999","MEAN_MOTION_DOT":"-0.00000473","MEAN_MOTION":"15.06398393","TIME_SYSTEM":"UTC","FILE":"3228256","RCS_SIZE":"LARGE","OBJECT_TYPE":"PAYLOAD","REF_FRAME":"TEME","DECAY_DATE":null,"COUNTRY_CODE":"US","CENTER_NAME":"EARTH","ECCENTRICITY":"0.00023250"},{"FILE":"3228256","TIME_SYSTEM":"UTC","COUNTRY_CODE":"US","DECAY_DATE":null,"CENTER_NAME":"EARTH","RCS_SIZE":"LARGE","REF_FRAME":"TEME","OBJECT_TYPE":"PAYLOAD","ECCENTRICITY":"0.00021230","ELEMENT_SET_NO":"999","MEAN_MOTION_DOT":"0.00000271","MEAN_MOTION":"15.06400407","CLASSIFICATION_TYPE":"U","OBJECT_ID":"2021-041W","SEMIMAJOR_AXIS":"6925.347","RA_OF_ASC_NODE":"295.1917","LAUNCH_DATE":"2021-05-15","APOAPSIS":"548.683","MEAN_MOTION_DDOT":"0.0000000000000","TLE_LINE2":"2 48573  53.0548 295.1917 0002123  56.7213 303.3979 15.06400407 30059","MEAN_ELEMENT_THEORY":"SGP4","PERIAPSIS":"545.742","REV_AT_EPOCH":"3005","EPHEMERIS_TYPE":"0","ARG_OF_PERICENTER":"56.7213","TLE_LINE1":"1 48573U 21041W   21334.58644192  .00000271  00000-0  37096-4 0  9996","NORAD_CAT_ID":"48573","MEAN_ANOMALY":"303.3979","PERIOD":"95.592","OBJECT_NAME":"STARLINK-2224","EPOCH":"2021-11-30T14:04:28.581888","GP_ID":"190817887","SITE":"AFETR","BSTAR":"0.00003709600000","INCLINATION":"53.0548"},{"TLE_LINE1":"1 48574U 21041X   21334.91667824 -.00017758  00000-0 -11761-2 0  9990","NORAD_CAT_ID":"48574","ARG_OF_PERICENTER":"64.2798","EPHEMERIS_TYPE":"0","REV_AT_EPOCH":"359","MEAN_ELEMENT_THEORY":"SGP4","PERIAPSIS":"545.661","INCLINATION":"53.0415","GP_ID":"190818038","SITE":"AFETR","BSTAR":"-0.00117610000000","OBJECT_NAME":"STARLINK-2225","EPOCH":"2021-11-30T22:00:00.999936","MEAN_ANOMALY":"137.8257","PERIOD":"95.592","OBJECT_ID":"2021-041X","CLASSIFICATION_TYPE":"U","MEAN_MOTION_DDOT":"0.0000000000000","TLE_LINE2":"2 48574  53.0415 263.7620 0002231  64.2798 137.8257 15.06402387  3594","RA_OF_ASC_NODE":"263.7620","SEMIMAJOR_AXIS":"6925.341","APOAPSIS":"548.751","LAUNCH_DATE":"2021-05-15","MEAN_MOTION_DOT":"-0.00017758","ELEMENT_SET_NO":"999","MEAN_MOTION":"15.06402387","CENTER_NAME":"EARTH","DECAY_DATE":null,"COUNTRY_CODE":"US","REF_FRAME":"TEME","RCS_SIZE":"LARGE","OBJECT_TYPE":"PAYLOAD","FILE":"3228256","TIME_SYSTEM":"UTC","ECCENTRICITY":"0.00022310"},{"ECCENTRICITY":"0.00025950","TIME_SYSTEM":"UTC","FILE":"3228256","OBJECT_TYPE":"PAYLOAD","RCS_SIZE":"LARGE","REF_FRAME":"TEME","CENTER_NAME":"EARTH","DECAY_DATE":null,"COUNTRY_CODE":"US","MEAN_MOTION":"15.42126622","ELEMENT_SET_NO":"999","MEAN_MOTION_DOT":"0.00003269","TLE_LINE2":"2 48575  53.0554 258.0966 0002595  15.6955  29.1309 15.42126622  3650","MEAN_MOTION_DDOT":"0.0000000000000","APOAPSIS":"441.605","LAUNCH_DATE":"2021-05-15","RA_OF_ASC_NODE":"258.0966","SEMIMAJOR_AXIS":"6817.971","OBJECT_ID":"2021-041Y","CLASSIFICATION_TYPE":"U","EPOCH":"2021-11-30T22:00:00.999936","OBJECT_NAME":"STARLINK-2227","PERIOD":"93.378","MEAN_ANOMALY":"29.1309","INCLINATION":"53.0554","GP_ID":"190818790","SITE":"AFETR","BSTAR":"0.00008464400000","REV_AT_EPOCH":"365","PERIAPSIS":"438.067","MEAN_ELEMENT_THEORY":"SGP4","NORAD_CAT_ID":"48575","TLE_LINE1":"1 48575U 21041Y   21334.91667824  .00003269  00000-0  84644-4 0  9993","EPHEMERIS_TYPE":"0","ARG_OF_PERICENTER":"15.6955"},{"INCLINATION":"53.0554","GP_ID":"190818940","SITE":"AFETR","BSTAR":"-0.00177620000000","OBJECT_NAME":"STARLINK-2228","EPOCH":"2021-11-30T22:00:00.999936","MEAN_ANOMALY":"52.6760","PERIOD":"95.696","TLE_LINE1":"1 48576U 21041Z   21334.91667824 -.00025508  00000-0 -17762-2 0  9991","NORAD_CAT_ID":"48576","EPHEMERIS_TYPE":"0","ARG_OF_PERICENTER":"52.6441","REV_AT_EPOCH":"359","MEAN_ELEMENT_THEORY":"SGP4","PERIAPSIS":"550.270","MEAN_MOTION_DDOT":"0.0000000000000","TLE_LINE2":"2 48576  53.0554 268.5494 0002820  52.6441  52.6760 15.04766702  3597","SEMIMAJOR_AXIS":"6930.359","RA_OF_ASC_NODE":"268.5494","APOAPSIS":"554.178","LAUNCH_DATE":"2021-05-15","OBJECT_ID":"2021-041Z","CLASSIFICATION_TYPE":"U","MEAN_MOTION":"15.04766702","MEAN_MOTION_DOT":"-0.00025508","ELEMENT_SET_NO":"999","ECCENTRICITY":"0.00028200","DECAY_DATE":null,"COUNTRY_CODE":"US","CENTER_NAME":"EARTH","REF_FRAME":"TEME","RCS_SIZE":"LARGE","OBJECT_TYPE":"PAYLOAD","FILE":"3228256","TIME_SYSTEM":"UTC"},{"ELEMENT_SET_NO":"999","MEAN_MOTION_DOT":"-0.00000023","MEAN_MOTION":"15.06390410","FILE":"3228031","TIME_SYSTEM":"UTC","COUNTRY_CODE":"US","DECAY_DATE":null,"CENTER_NAME":"EARTH","REF_FRAME":"TEME","RCS_SIZE":"LARGE","OBJECT_TYPE":"PAYLOAD","ECCENTRICITY":"0.00020610","MEAN_ELEMENT_THEORY":"SGP4","PERIAPSIS":"545.816","REV_AT_EPOCH":"3054","ARG_OF_PERICENTER":"58.7126","EPHEMERIS_TYPE":"0","TLE_LINE1":"1 48577U 21041AA  21334.84446225 -.00000023  00000-0  17393-4 0  9990","NORAD_CAT_ID":"48577","MEAN_ANOMALY":"301.4065","PERIOD":"95.593","OBJECT_NAME":"STARLINK-2231","EPOCH":"2021-11-30T20:16:01.538400","GP_ID":"190792788","SITE":"AFETR","BSTAR":"0.00001739300000","INCLINATION":"53.0545","CLASSIFICATION_TYPE":"U","OBJECT_ID":"2021-041AA","SEMIMAJOR_AXIS":"6925.378","RA_OF_ASC_NODE":"294.0394","APOAPSIS":"548.670","LAUNCH_DATE":"2021-05-15","TLE_LINE2":"2 48577  53.0545 294.0394 0002061  58.7126 301.4065 15.06390410 30544","MEAN_MOTION_DDOT":"0.0000000000000"},{"EPOCH":"2021-11-30T15:01:30.288000","OBJECT_NAME":"STARLINK-2232","PERIOD":"95.592","MEAN_ANOMALY":"304.7302","INCLINATION":"53.0572","GP_ID":"190818339","BSTAR":"0.00003951700000","SITE":"AFETR","REV_AT_EPOCH":"3006","PERIAPSIS":"545.867","MEAN_ELEMENT_THEORY":"SGP4","NORAD_CAT_ID":"48578","TLE_LINE1":"1 48578U 21041AB  21334.62604500  .00000307  00000-0  39517-4 0  9995","ARG_OF_PERICENTER":"55.3871","EPHEMERIS_TYPE":"0","TLE_LINE2":"2 48578  53.0572 295.0106 0001956  55.3871 304.7302 15.06397243 30067","MEAN_MOTION_DDOT":"0.0000000000000","APOAPSIS":"548.577","LAUNCH_DATE":"2021-05-15","SEMIMAJOR_AXIS":"6925.357","RA_OF_ASC_NODE":"295.0106","OBJECT_ID":"2021-041AB","CLASSIFICATION_TYPE":"U","MEAN_MOTION":"15.06397243","ELEMENT_SET_NO":"999","MEAN_MOTION_DOT":"0.00000307","ECCENTRICITY":"0.00019560","TIME_SYSTEM":"UTC","FILE":"3228256","REF_FRAME":"TEME","RCS_SIZE":"LARGE","OBJECT_TYPE":"PAYLOAD","COUNTRY_CODE":"US","DECAY_DATE":null,"CENTER_NAME":"EARTH"},{"PERIAPSIS":"545.860","MEAN_ELEMENT_THEORY":"SGP4","REV_AT_EPOCH":"3009","EPHEMERIS_TYPE":"0","ARG_OF_PERICENTER":"60.9599","NORAD_CAT_ID":"48579","TLE_LINE1":"1 48579U 21041AC  21334.83339743  .00000519  00000-0  53777-4 0  9992","PERIOD":"95.592","MEAN_ANOMALY":"299.1585","EPOCH":"2021-11-30T20:00:05.537952","OBJECT_NAME":"STARLINK-2233","BSTAR":"0.00005377700000","GP_ID":"190818490","SITE":"AFETR","INCLINATION":"53.0564","CLASSIFICATION_TYPE":"U","OBJECT_ID":"2021-041AC","LAUNCH_DATE":"2021-05-15","APOAPSIS":"548.550","SEMIMAJOR_AXIS":"6925.340","RA_OF_ASC_NODE":"294.0903","MEAN_MOTION_DDOT":"0.0000000000000","TLE_LINE2":"2 48579  53.0564 294.0903 0001942  60.9599 299.1585 15.06402681 30093","ELEMENT_SET_NO":"999","MEAN_MOTION_DOT":"0.00000519","MEAN_MOTION":"15.06402681","TIME_SYSTEM":"UTC","FILE":"3228256","OBJECT_TYPE":"PAYLOAD","RCS_SIZE":"LARGE","REF_FRAME":"TEME","DECAY_DATE":null,"CENTER_NAME":"EARTH","COUNTRY_CODE":"US","ECCENTRICITY":"0.00019420"},{"RA_OF_ASC_NODE":"268.7110","SEMIMAJOR_AXIS":"6925.330","LAUNCH_DATE":"2021-05-15","APOAPSIS":"549.181","MEAN_MOTION_DDOT":"0.0000000000000","TLE_LINE2":"2 48580  53.0548 268.7110 0002867  55.6042 218.9967 15.06405951  3597","CLASSIFICATION_TYPE":"U","OBJECT_ID":"2021-041AD","GP_ID":"190818641","BSTAR":"-0.00108000000000","SITE":"AFETR","INCLINATION":"53.0548","MEAN_ANOMALY":"218.9967","PERIOD":"95.592","OBJECT_NAME":"STARLINK-2234","EPOCH":"2021-11-30T22:00:00.999936","ARG_OF_PERICENTER":"55.6042","EPHEMERIS_TYPE":"0","TLE_LINE1":"1 48580U 21041AD  21334.91667824 -.00016336  00000-0 -10800-2 0  9991","NORAD_CAT_ID":"48580","MEAN_ELEMENT_THEORY":"SGP4","PERIAPSIS":"545.210","REV_AT_EPOCH":"359","ECCENTRICITY":"0.00028670","CENTER_NAME":"EARTH","DECAY_DATE":null,"COUNTRY_CODE":"US","OBJECT_TYPE":"PAYLOAD","RCS_SIZE":"LARGE","REF_FRAME":"TEME","FILE":"3228256","TIME_SYSTEM":"UTC","MEAN_MOTION":"15.06405951","MEAN_MOTION_DOT":"-0.00016336","ELEMENT_SET_NO":"999"},{"APOAPSIS":"527.711","LAUNCH_DATE":"2021-05-15","SEMIMAJOR_AXIS":"6904.948","RA_OF_ASC_NODE":"258.6718","MEAN_MOTION_DDOT":"0.0000000000000","TLE_LINE2":"2 48581  53.0539 258.6718 0001301  79.1469  15.3414 15.13081024  3658","CLASSIFICATION_TYPE":"U","OBJECT_ID":"2021-041AE","PERIOD":"95.170","MEAN_ANOMALY":"15.3414","EPOCH":"2021-11-30T22:00:00.999936","OBJECT_NAME":"STARLINK-2235","GP_ID":"190817888","BSTAR":"-0.06415200000000","SITE":"AFETR","INCLINATION":"53.0539","PERIAPSIS":"525.914","MEAN_ELEMENT_THEORY":"SGP4","REV_AT_EPOCH":"365","EPHEMERIS_TYPE":"0","ARG_OF_PERICENTER":"79.1469","NORAD_CAT_ID":"48581","TLE_LINE1":"1 48581U 21041AE  21334.91667824 -.01064134  00000-0 -64152-1 0  9990","ECCENTRICITY":"0.00013010","TIME_SYSTEM":"UTC","FILE":"3228256","REF_FRAME":"TEME","RCS_SIZE":"LARGE","OBJECT_TYPE":"PAYLOAD","CENTER_NAME":"EARTH","DECAY_DATE":null,"COUNTRY_CODE":"US","MEAN_MOTION":"15.13081024","ELEMENT_SET_NO":"999","MEAN_MOTION_DOT":"-0.01064134"}];
